[{"OBJECT_NAME":"STARLINK-36874","OBJECT_ID":"2026-038W","EPOCH":"2026-03-09T22:00:01.999584","MEAN_MOTION":15.897997,"ECCENTRICITY":0.00012664,"INCLINATION":97.2685,"RA_OF_ASC_NODE":79.2429,"ARG_OF_PERICENTER":78.9912,"MEAN_ANOMALY":264.1764,"EPHEMERIS_TYPE":0,"CLASSIFICATION_TYPE":"U","NORAD_CAT_ID":67981,"ELEMENT_SET_NO":999,"REV_AT_EPOCH":323,"BSTAR":-0.0058180901,"MEAN_MOTION_DOT":-0.01699758,"MEAN_MOTION_DDOT":0.00078700298},{"OBJECT_NAME":"TITAN 34B R\/B","OBJECT_ID":"1981-038B","EPOCH":"2026-03-07T16:52:29.587008","MEAN_MOTION":4.6834501,"ECCENTRICITY":0.55759271,"INCLINATION":63.2097,"RA_OF_ASC_NODE":321.9008,"ARG_OF_PERICENTER":289.8509,"MEAN_ANOMALY":20.1431,"EPHEMERIS_TYPE":0,"CLASSIFICATION_TYPE":"U","NORAD_CAT_ID":12446,"ELEMENT_SET_NO":999,"REV_AT_EPOCH":9125,"BSTAR":0.0015819773,"MEAN_MOTION_DOT":7.639e-5,"MEAN_MOTION_DDOT":0}]
